LEMUR-2-TARTIFLETTE     
1 66784U 25276DZ  26117.09310613  .00007668  00000+0  64639-3 0  9990
2 66784  97.5296 189.4997 0011707 316.8156  43.2148 14.98393671 22540
LEMUR-2-VUKASIN         
1 66785U 25276EA  26117.19824411  .00009072  00000+0  73892-3 0  9990
2 66785  97.5241 189.7914 0006079 301.7550  58.3081 14.99708098 22503
LEMUR-2-HOTSPUR-TOM     
1 66786U 25276EB  26117.14968624  .00008039  00000+0  67772-3 0  9993
2 66786  97.5267 189.5507 0011977 309.4793  50.5370 14.98374686 22488
LEMUR-2-MYRA            
1 66787U 25276EC  26117.09261699  .00006029  00000+0  49294-3 0  9992
2 66787  97.5312 189.6492 0010975 322.5053  37.5404 14.99669939 22556
LEMUR-2 FIKRETDENGIZ    
1 67363U 26004A   26116.96475278  .00004939  00000+0  54463-3 0  9990
2 67363  97.8019 116.3273 0007490 318.4152  41.6494 14.87926386 15668
LEMUR-2-CALLUM-K-J      
1 67364U 26004B   26116.97138341  .00001878  00000+0  21297-3 0  9997
2 67364  97.8064 116.3628 0007271 304.9124  55.1408 14.87521913 15672
LEMUR-2-MARIO-SOUSA     
1 67365U 26004C   26116.95420914  .00005444  00000+0  59736-3 0  9998
2 67365  97.7998 116.3153 0007054 320.1963  39.8735 14.88086898 15672
LEMUR-2-SONNENBLUME     
1 67367U 26004E   26116.94850010  .00003563  00000+0  39350-3 0  9993
2 67367  97.7990 116.3085 0006858 322.0168  38.0565 14.88046259 15678
LEMUR-2-WOBLER          
1 67368U 26004F   26116.94696845  .00005144  00000+0  56432-3 0  9995
2 67368  97.8047 116.3814 0006523 310.0048  50.0595 14.88128387 15676
LEMUR-2-GRAM-E-SUE      
1 67370U 26004H   26117.00579975  .00005435  00000+0  59449-3 0  9994
2 67370  97.7978 116.3748 0005939 326.6969  33.3874 14.88220710 15680
LEMUR-2-KATIE           
1 67387U 26004AA  26116.97803368  .00004520  00000+0  47789-3 0  9991
2 67387  97.8040 116.6450 0001293 251.1639 108.9439 14.89701793 15689
LEMUR-2-HCS-BAZUS       
1 67388U 26004AB  26116.97561603  .00004961  00000+0  52527-3 0  9990
2 67388  97.8031 116.6344 0000924 225.9713 134.1429 14.89598330 15685
